{
  "links" : {
    "next" : "https://api.nasa.gov/neo/rest/v1/feed?start_date=2013-03-16&end_date=2013-03-16&detailed=true&api_key=t0TVs3DtDT2H8Oy2Zy8m2eVrNsAVKAexjcZXUckd",
    "prev" : "https://api.nasa.gov/neo/rest/v1/feed?start_date=2013-03-14&end_date=2013-03-14&detailed=true&api_key=t0TVs3DtDT2H8Oy2Zy8m2eVrNsAVKAexjcZXUckd",
    "self" : "https://api.nasa.gov/neo/rest/v1/feed?start_date=2013-03-15&end_date=2013-03-15&detailed=true&api_key=t0TVs3DtDT2H8Oy2Zy8m2eVrNsAVKAexjcZXUckd"
  },
  "element_count" : 6,
  "near_earth_objects" : {
    "2013-03-15" : [ {
      "links" : {
        "self" : "https://api.nasa.gov/neo/rest/v1/neo/3626087?api_key=t0TVs3DtDT2H8Oy2Zy8m2eVrNsAVKAexjcZXUckd"
      },
      "neo_reference_id" : "3626087",
      "name" : "(2013 CW35)",
      "nasa_jpl_url" : "http://ssd.jpl.nasa.gov/sbdb.cgi?sstr=3626087",
      "absolute_magnitude_h" : 21.0,
      "estimated_diameter" : {
        "kilometers" : {
          "estimated_diameter_min" : 0.1677084622,
          "estimated_diameter_max" : 0.3750075218
        },
        "meters" : {
          "estimated_diameter_min" : 167.7084621628,
          "estimated_diameter_max" : 375.0075217981
        },
        "miles" : {
          "estimated_diameter_min" : 0.1042091748,
          "estimated_diameter_max" : 0.2330187988
        },
        "feet" : {
          "estimated_diameter_min" : 550.2246310023,
          "estimated_diameter_max" : 1230.3396778159
        }
      },
      "is_potentially_hazardous_asteroid" : false,
      "close_approach_data" : [ {
        "close_approach_date" : "2013-03-15",
        "epoch_date_close_approach" : 1363330800000,
        "relative_velocity" : {
          "kilometers_per_second" : "5.2518141556",
          "kilometers_per_hour" : "18906.5309600668",
          "miles_per_hour" : "11747.7830846038"
        },
        "miss_distance" : {
          "astronomical" : "0.1744949026",
          "lunar" : "67.8785171509",
          "kilometers" : "26104066",
          "miles" : "16220315"
        },
        "orbiting_body" : "Earth"
      } ],
      "orbital_data" : {
        "orbit_id" : "31",
        "orbit_determination_date" : "2017-04-06 08:46:53",
        "orbit_uncertainty" : "5",
        "minimum_orbit_intersection" : ".14923",
        "jupiter_tisserand_invariant" : "3.789",
        "epoch_osculation" : "2458000.5",
        "eccentricity" : ".4127825728732655",
        "semi_major_axis" : "1.939998190374758",
        "inclination" : "5.883517029583742",
        "ascending_node_longitude" : "339.2775284602587",
        "orbital_period" : "986.9619598033303",
        "perihelion_distance" : "1.139200745982386",
        "perihelion_argument" : "198.0839487351064",
        "aphelion_distance" : "2.740795634767129",
        "perihelion_time" : "2458338.272209169142",
        "mean_anomaly" : "236.7956615824163",
        "mean_motion" : ".3647556994716761",
        "equinox" : "J2000"
      }
    }, {
      "links" : {
        "self" : "https://api.nasa.gov/neo/rest/v1/neo/3670290?api_key=t0TVs3DtDT2H8Oy2Zy8m2eVrNsAVKAexjcZXUckd"
      },
      "neo_reference_id" : "3670290",
      "name" : "(2014 HJ184)",
      "nasa_jpl_url" : "http://ssd.jpl.nasa.gov/sbdb.cgi?sstr=3670290",
      "absolute_magnitude_h" : 21.7,
      "estimated_diameter" : {
        "kilometers" : {
          "estimated_diameter_min" : 0.1214940408,
          "estimated_diameter_max" : 0.2716689341
        },
        "meters" : {
          "estimated_diameter_min" : 121.4940407996,
          "estimated_diameter_max" : 271.6689340891
        },
        "miles" : {
          "estimated_diameter_min" : 0.0754928736,
          "estimated_diameter_max" : 0.1688071972
        },
        "feet" : {
          "estimated_diameter_min" : 398.6025088171,
          "estimated_diameter_max" : 891.3023057169
        }
      },
      "is_potentially_hazardous_asteroid" : false,
      "close_approach_data" : [ {
        "close_approach_date" : "2013-03-15",
        "epoch_date_close_approach" : 1363330800000,
        "relative_velocity" : {
          "kilometers_per_second" : "12.006367749",
          "kilometers_per_hour" : "43222.9238963712",
          "miles_per_hour" : "26857.0440177202"
        },
        "miss_distance" : {
          "astronomical" : "0.2791156607",
          "lunar" : "108.5759887695",
          "kilometers" : "41755108",
          "miles" : "25945420"
        },
        "orbiting_body" : "Earth"
      } ],
      "orbital_data" : {
        "orbit_id" : "13",
        "orbit_determination_date" : "2017-04-06 08:41:13",
        "orbit_uncertainty" : "4",
        "minimum_orbit_intersection" : ".246991",
        "jupiter_tisserand_invariant" : "6.302",
        "epoch_osculation" : "2458000.5",
        "eccentricity" : ".3817469813729895",
        "semi_major_axis" : ".9351781950845752",
        "inclination" : "19.57917185534152",
        "ascending_node_longitude" : "28.67873069989264",
        "orbital_period" : "330.3238905820498",
        "perihelion_distance" : ".578176742065198",
        "perihelion_argument" : "357.4061887883924",
        "aphelion_distance" : "1.292179648103952",
        "perihelion_time" : "2457910.785792084965",
        "mean_anomaly" : "97.77408104664535",
        "mean_motion" : "1.089839428100883",
        "equinox" : "J2000"
      }
    }, {
      "links" : {
        "self" : "https://api.nasa.gov/neo/rest/v1/neo/3712903?api_key=t0TVs3DtDT2H8Oy2Zy8m2eVrNsAVKAexjcZXUckd"
      },
      "neo_reference_id" : "3712903",
      "name" : "(2015 EF)",
      "nasa_jpl_url" : "http://ssd.jpl.nasa.gov/sbdb.cgi?sstr=3712903",
      "absolute_magnitude_h" : 26.8,
      "estimated_diameter" : {
        "kilometers" : {
          "estimated_diameter_min" : 0.0116025908,
          "estimated_diameter_max" : 0.0259441818
        },
        "meters" : {
          "estimated_diameter_min" : 11.6025908209,
          "estimated_diameter_max" : 25.9441817907
        },
        "miles" : {
          "estimated_diameter_min" : 0.0072095135,
          "estimated_diameter_max" : 0.0161209622
        },
        "feet" : {
          "estimated_diameter_min" : 38.066244069,
          "estimated_diameter_max" : 85.1187093863
        }
      },
      "is_potentially_hazardous_asteroid" : false,
      "close_approach_data" : [ {
        "close_approach_date" : "2013-03-15",
        "epoch_date_close_approach" : 1363330800000,
        "relative_velocity" : {
          "kilometers_per_second" : "13.9355350663",
          "kilometers_per_hour" : "50167.9262387801",
          "miles_per_hour" : "31172.3983898687"
        },
        "miss_distance" : {
          "astronomical" : "0.0234165534",
          "lunar" : "9.1090393066",
          "kilometers" : "3503066.5",
          "miles" : "2176704.5"
        },
        "orbiting_body" : "Earth"
      } ],
      "orbital_data" : {
        "orbit_id" : "5",
        "orbit_determination_date" : "2017-04-06 08:35:14",
        "orbit_uncertainty" : "8",
        "minimum_orbit_intersection" : ".00626025",
        "jupiter_tisserand_invariant" : "4.220",
        "epoch_osculation" : "2457091.5",
        "eccentricity" : ".5153884836913825",
        "semi_major_axis" : "1.586053937652441",
        "inclination" : "6.856968296863903",
        "ascending_node_longitude" : "349.9488305739173",
        "orbital_period" : "729.584091350663",
        "perihelion_distance" : ".7686200036730032",
        "perihelion_argument" : "253.6742111728375",
        "aphelion_distance" : "2.40348787163188",
        "perihelion_time" : "2457142.719545278265",
        "mean_anomaly" : "334.7266469776779",
        "mean_motion" : ".4934318117237725",
        "equinox" : "J2000"
      }
    } ]
  }
}